IRIDIUM 57 [-]          
1 25273U 98019B   23314.58080521  .00000731  00000+0  25001-3 0  9999
2 25273  86.4005  30.0641 0002103  93.5734 266.5703 14.34978695340928
IRIDIUM 63 [-]          
1 25286U 98021B   23314.54539306  .00000799  00000+0  27110-3 0  9999
2 25286  86.3966 327.0367 0002233  86.4820 273.6631 14.35482549339940
IRIDIUM 69 [-]          
1 25319U 98026A   23314.55891047  .00000902  00000+0  28226-3 0  9990
2 25319  86.3990 342.0541 0003896 121.6760 238.4819 14.39660902338914
IRIDIUM 71 [-]          
1 25320U 98026B   23314.60809147  .00000673  00000+0  20769-3 0  9997
2 25320  86.3975 336.8554 0002080 151.1215 209.0099 14.39987416339435
IRIDIUM 73 [-]          
1 25344U 98032C   23314.48686329  .00001230  00000+0  31175-3 0  9994
2 25344  86.4374 294.6726 0002591 103.4900 256.6593 14.50122048345782
IRIDIUM 82 [-]          
1 25467U 98051A   23314.59735558  .00013533  00000+0  78782-3 0  9996
2 25467  86.3990  29.1126 0142178 303.6227  55.1506 15.03666907335420
IRIDIUM 2 [-]           
1 25527U 98066A   23314.38979054  .00049904  00000+0  10643-2 0  9999
2 25527  85.5165  82.3037 0005043  90.6488 269.5345 15.44687786373657
